{
  "type": "FeatureCollection",
  "features": [
    {
      "type": "Feature",
      "properties": {
        "norad_id": 38857,
        "name": "GSAT0103 (GALILEO-FM3)",
        "group": "gnss",
        "lat": 54.76067627930408,
        "lon": -148.33286504398123,
        "alt_km": 23223.746847583443,
        "timestamp": "2025-12-14T20:40:32.013760+00:00",
        "meta_object_name": "GSAT0103 (GALILEO-FM3)",
        "meta_object_id": "2012-055A",
        "meta_epoch": "2025-12-13T12:39:44.093088",
        "meta_mean_motion": 1.70473367,
        "meta_eccentricity": 0.00026827,
        "meta_inclination": 55.6929,
        "meta_ra_of_asc_node": 106.6448,
        "meta_arg_of_pericenter": 268.8486,
        "meta_mean_anomaly": 91.0883,
        "meta_ephemeris_type": 0,
        "meta_classification_type": "U",
        "meta_norad_cat_id": 38857,
        "meta_element_set_no": 999,
        "meta_rev_at_epoch": 8184,
        "meta_bstar": 0,
        "meta_mean_motion_dot": 1e-08,
        "meta_mean_motion_ddot": 0,
        "tle_line1": "1 38857U 12055A   25347.52759367  .00000001  00000+0  00000+0 0  9998",
        "tle_line2": "2 38857  55.6929 106.6448 0002682 268.8486  91.0883  1.70473367 81846"
      },
      "geometry": {
        "type": "Point",
        "coordinates": [
          -148.33286504398123,
          54.76067627930408
        ]
      }
    },
    {
      "type": "Feature",
      "properties": {
        "norad_id": 38953,
        "name": "BEIDOU-2 G6 (C02)",
        "group": "gnss",
        "lat": 2.685538638520132,
        "lon": 117.91077204501522,
        "alt_km": 35798.87031946419,
        "timestamp": "2025-12-14T20:40:32.013772+00:00",
        "meta_object_name": "BEIDOU-2 G6 (C02)",
        "meta_object_id": "2012-059A",
        "meta_epoch": "2025-12-13T20:41:54.109248",
        "meta_mean_motion": 1.00269673,
        "meta_eccentricity": 0.00079036,
        "meta_inclination": 3.9524,
        "meta_ra_of_asc_node": 75.4959,
        "meta_arg_of_pericenter": 290.1643,
        "meta_mean_anomaly": 111.6061,
        "meta_ephemeris_type": 0,
        "meta_classification_type": "U",
        "meta_norad_cat_id": 38953,
        "meta_element_set_no": 999,
        "meta_rev_at_epoch": 4805,
        "meta_bstar": 0,
        "meta_mean_motion_dot": -1.6e-06,
        "meta_mean_motion_ddot": 0,
        "tle_line1": "1 38953U 12059A   25347.86243182 -.00000160  00000+0  00000+0 0  9996",
        "tle_line2": "2 38953   3.9524  75.4959 0007903 290.1643 111.6061  1.00269673 48053"
      },
      "geometry": {
        "type": "Point",
        "coordinates": [
          117.91077204501522,
          2.685538638520132
        ]
      }
    },
    {
      "type": "Feature",
      "properties": {
        "norad_id": 38977,
        "name": "LUCH 5B (SDCM/PRN 125)",
        "group": "gnss",
        "lat": -5.622288151365159,
        "lon": 18.039319848759877,
        "alt_km": 35806.488849619134,
        "timestamp": "2025-12-14T20:40:32.013785+00:00",
        "meta_object_name": "LUCH 5B (SDCM/PRN 125)",
        "meta_object_id": "2012-061A",
        "meta_epoch": "2025-12-13T23:38:39.482016",
        "meta_mean_motion": 1.00272417,
        "meta_eccentricity": 0.00069741,
        "meta_inclination": 10.0843,
        "meta_ra_of_asc_node": 51.6952,
        "meta_arg_of_pericenter": 193.6655,
        "meta_mean_anomaly": 175.8757,
        "meta_ephemeris_type": 0,
        "meta_classification_type": "U",
        "meta_norad_cat_id": 38977,
        "meta_element_set_no": 999,
        "meta_rev_at_epoch": 4775,
        "meta_bstar": 0,
        "meta_mean_motion_dot": -1.27e-06,
        "meta_mean_motion_ddot": 0,
        "tle_line1": "1 38977U 12061A   25347.98517919 -.00000127  00000+0  00000+0 0  9993",
        "tle_line2": "2 38977  10.0843  51.6952 0006974 193.6655 175.8757  1.00272417 47758"
      },
      "geometry": {
        "type": "Point",
        "coordinates": [
          18.039319848759877,
          -5.622288151365159
        ]
      }
    },
    {
      "type": "Feature",
      "properties": {
        "norad_id": 39155,
        "name": "COSMOS 2485 (747)",
        "group": "gnss",
        "lat": -61.835608705663404,
        "lon": 20.738588848408003,
        "alt_km": 19099.61810877199,
        "timestamp": "2025-12-14T20:40:32.013797+00:00",
        "meta_object_name": "COSMOS 2485 (747)",
        "meta_object_id": "2013-019A",
        "meta_epoch": "2025-12-13T13:15:58.678272",
        "meta_mean_motion": 2.13102947,
        "meta_eccentricity": 0.00246467,
        "meta_inclination": 65.3142,
        "meta_ra_of_asc_node": 79.8396,
        "meta_arg_of_pericenter": 229.7128,
        "meta_mean_anomaly": 130.0848,
        "meta_ephemeris_type": 0,
        "meta_classification_type": "U",
        "meta_norad_cat_id": 39155,
        "meta_element_set_no": 999,
        "meta_rev_at_epoch": 9832,
        "meta_bstar": 0,
        "meta_mean_motion_dot": -4.8e-07,
        "meta_mean_motion_ddot": 0,
        "tle_line1": "1 39155U 13019A   25347.55276248 -.00000048  00000+0  00000+0 0  9998",
        "tle_line2": "2 39155  65.3142  79.8396 0024646 229.7128 130.0848  2.13102947 98326"
      },
      "geometry": {
        "type": "Point",
        "coordinates": [
          20.738588848408003,
          -61.835608705663404
        ]
      }
    },
    {
      "type": "Feature",
      "properties": {
        "norad_id": 39166,
        "name": "GPS BIIF-4  (PRN 27)",
        "group": "gnss",
        "lat": 48.96530968009113,
        "lon": 41.93287196895214,
        "alt_km": 20010.432774984147,
        "timestamp": "2025-12-14T20:40:32.013810+00:00",
        "meta_object_name": "GPS BIIF-4  (PRN 27)",
        "meta_object_id": "2013-023A",
        "meta_epoch": "2025-12-13T05:07:46.586496",
        "meta_mean_motion": 2.0056518,
        "meta_eccentricity": 0.01379131,
        "meta_inclination": 54.6516,
        "meta_ra_of_asc_node": 276.5489,
        "meta_arg_of_pericenter": 48.6136,
        "meta_mean_anomaly": 312.5751,
        "meta_ephemeris_type": 0,
        "meta_classification_type": "U",
        "meta_norad_cat_id": 39166,
        "meta_element_set_no": 999,
        "meta_rev_at_epoch": 9215,
        "meta_bstar": 0,
        "meta_mean_motion_dot": -7.6e-07,
        "meta_mean_motion_ddot": 0,
        "tle_line1": "1 39166U 13023A   25347.21373364 -.00000076  00000+0  00000+0 0  9996",
        "tle_line2": "2 39166  54.6516 276.5489 0137913  48.6136 312.5751  2.00565180 92155"
      },
      "geometry": {
        "type": "Point",
        "coordinates": [
          41.93287196895214,
          48.96530968009113
        ]
      }
    },
    {
      "type": "Feature",
      "properties": {
        "norad_id": 39199,
        "name": "IRNSS-1A",
        "group": "gnss",
        "lat": 12.951512400750255,
        "lon": 85.44581866329344,
        "alt_km": 35869.24185893954,
        "timestamp": "2025-12-14T20:40:32.013822+00:00",
        "meta_object_name": "IRNSS-1A",
        "meta_object_id": "2013-034A",
        "meta_epoch": "2025-12-02T19:49:26.431104",
        "meta_mean_motion": 1.00279053,
        "meta_eccentricity": 0.00216608,
        "meta_inclination": 35.2852,
        "meta_ra_of_asc_node": 66.6964,
        "meta_arg_of_pericenter": 185.4059,
        "meta_mean_anomaly": 172.3398,
        "meta_ephemeris_type": 0,
        "meta_classification_type": "U",
        "meta_norad_cat_id": 39199,
        "meta_element_set_no": 999,
        "meta_rev_at_epoch": 4539,
        "meta_bstar": 0,
        "meta_mean_motion_dot": 6.5e-07,
        "meta_mean_motion_ddot": 0,
        "tle_line1": "1 39199U 13034A   25336.82600036  .00000065  00000+0  00000+0 0  9995",
        "tle_line2": "2 39199  35.2852  66.6964 0021660 185.4059 172.3398  1.00279053 45393"
      },
      "geometry": {
        "type": "Point",
        "coordinates": [
          85.44581866329344,
          12.951512400750255
        ]
      }
    },
    {
      "type": "Feature",
      "properties": {
        "norad_id": 39533,
        "name": "GPS BIIF-5  (PRN 30)",
        "group": "gnss",
        "lat": 47.94082096822875,
        "lon": -77.95428096955398,
        "alt_km": 20259.223207772324,
        "timestamp": "2025-12-14T20:40:32.013835+00:00",
        "meta_object_name": "GPS BIIF-5  (PRN 30)",
        "meta_object_id": "2014-008A",
        "meta_epoch": "2025-12-13T16:57:00.836352",
        "meta_mean_motion": 2.00574526,
        "meta_eccentricity": 0.00792524,
        "meta_inclination": 53.6313,
        "meta_ra_of_asc_node": 156.8852,
        "meta_arg_of_pericenter": 226.5204,
        "meta_mean_anomaly": 132.8312,
        "meta_ephemeris_type": 0,
        "meta_classification_type": "U",
        "meta_norad_cat_id": 39533,
        "meta_element_set_no": 999,
        "meta_rev_at_epoch": 8596,
        "meta_bstar": 0,
        "meta_mean_motion_dot": 9.8e-07,
        "meta_mean_motion_ddot": 0,
        "tle_line1": "1 39533U 14008A   25347.70625968  .00000098  00000+0  00000+0 0  9995",
        "tle_line2": "2 39533  53.6313 156.8852 0079252 226.5204 132.8312  2.00574526 85966"
      },
      "geometry": {
        "type": "Point",
        "coordinates": [
          -77.95428096955398,
          47.94082096822875
        ]
      }
    }
  ]
}